{"type": "FeatureCollection", "features": [ {"type": "Feature", "properties": {"norad_id": 66609, "name": "STARLINK-36034", "group": "last-30-days", "lat": 38.270238270855515, "lon": -65.22831034251385, "alt_km": 409.350672727418, "timestamp": "2025-12-16T03:53:25.816050+00:00", "meta": {"OBJECT_NAME": "STARLINK-36034", "OBJECT_ID": "2025-270X", "EPOCH": "2025-12-15T05:45:23.502240", "MEAN_MOTION": 15.50605276, "ECCENTRICITY": 0.0001506, "INCLINATION": 42.9987, "RA_OF_ASC_NODE": 178.0171, "ARG_OF_PERICENTER": 271.6445, "MEAN_ANOMALY": 88.4243, "EPHEMERIS_TYPE": 0, "CLASSIFICATION_TYPE": "U", "NORAD_CAT_ID": 66609, "ELEMENT_SET_NO": 999, "REV_AT_EPOCH": 457, "BSTAR": 0.001486724, "MEAN_MOTION_DOT": 0.00087946, "MEAN_MOTION_DDOT": 0}, "tle": {"line1": "1 66609U 25270X   25349.23985535  .00087946  00000+0  14867-2 0  9997", "line2": "2 66609  42.9987 178.0171 0001506 271.6445  88.4243 15.50605276  4576"}}, "geometry": {"type": "Point", "coordinates": [-65.22831034251385, 38.270238270855515]}}, {"type": "Feature", "properties": {"norad_id": 66610, "name": "STARLINK-35680", "group": "last-30-days", "lat": 37.55673447829468, "lon": -62.990885091588396, "alt_km": 409.41763923443887, "timestamp": "2025-12-16T03:53:25.816060+00:00", "meta": {"OBJECT_NAME": "STARLINK-35680", "OBJECT_ID": "2025-270Y", "EPOCH": "2025-12-15T05:44:53.958624", "MEAN_MOTION": 15.5060185, "ECCENTRICITY": 0.00014067, "INCLINATION": 42.9987, "RA_OF_ASC_NODE": 178.0139, "ARG_OF_PERICENTER": 277.0814, "MEAN_ANOMALY": 82.9886, "EPHEMERIS_TYPE": 0, "CLASSIFICATION_TYPE": "U", "NORAD_CAT_ID": 66610, "ELEMENT_SET_NO": 999, "REV_AT_EPOCH": 484, "BSTAR": 0.001503026, "MEAN_MOTION_DOT": 0.00088914, "MEAN_MOTION_DDOT": 0}, "tle": {"line1": "1 66610U 25270Y   25349.23951341  .00088914  00000+0  15030-2 0  9996", "line2": "2 66610  42.9987 178.0139 0001406 277.0814  82.9886 15.50601850  4847"}}, "geometry": {"type": "Point", "coordinates": [-62.990885091588396, 37.55673447829468]}}, {"type": "Feature", "properties": {"norad_id": 66611, "name": "STARLINK-35583", "group": "last-30-days", "lat": 36.794449095396175, "lon": -60.7761053648341, "alt_km": 409.6130381984476, "timestamp": "2025-12-16T03:53:25.816070+00:00", "meta": {"OBJECT_NAME": "STARLINK-35583", "OBJECT_ID": "2025-270Z", "EPOCH": "2025-12-15T05:44:24.189504", "MEAN_MOTION": 15.50605937, "ECCENTRICITY": 0.0001559, "INCLINATION": 42.9988, "RA_OF_ASC_NODE": 178.0114, "ARG_OF_PERICENTER": 272.091, "MEAN_ANOMALY": 87.9772, "EPHEMERIS_TYPE": 0, "CLASSIFICATION_TYPE": "U", "NORAD_CAT_ID": 66611, "ELEMENT_SET_NO": 999, "REV_AT_EPOCH": 484, "BSTAR": 0.0014359272, "MEAN_MOTION_DOT": 0.00084898, "MEAN_MOTION_DDOT": 0}, "tle": {"line1": "1 66611U 25270Z   25349.23916886  .00084898  00000+0  14359-2 0  9992", "line2": "2 66611  42.9988 178.0114 0001559 272.0910  87.9772 15.50605937  4842"}}, "geometry": {"type": "Point", "coordinates": [-60.7761053648341, 36.794449095396175]}}, {"type": "Feature", "properties": {"norad_id": 66612, "name": "STARLINK-36039", "group": "last-30-days", "lat": -0.5855764048011135, "lon": 172.26983890496163, "alt_km": 443.7682637878497, "timestamp": "2025-12-16T03:53:25.816083+00:00", "meta": {"OBJECT_NAME": "STARLINK-36039", "OBJECT_ID": "2025-270AA", "EPOCH": "2025-12-15T08:00:01.999872", "MEAN_MOTION": 15.4068717, "ECCENTRICITY": 0.00022974, "INCLINATION": 42.9999, "RA_OF_ASC_NODE": 177.6752, "ARG_OF_PERICENTER": 265.6348, "MEAN_ANOMALY": 171.4199, "EPHEMERIS_TYPE": 0, "CLASSIFICATION_TYPE": "U", "NORAD_CAT_ID": 66612, "ELEMENT_SET_NO": 999, "REV_AT_EPOCH": 481, "BSTAR": 0.00053221841, "MEAN_MOTION_DOT": 0.00021984, "MEAN_MOTION_DDOT": 0}, "tle": {"line1": "1 66612U 25270AA  25349.33335648  .00021984  00000+0  53222-3 0  9995", "line2": "2 66612  42.9999 177.6752 0002297 265.6348 171.4199 15.40687170  4818"}}, "geometry": {"type": "Point", "coordinates": [172.26983890496163, -0.5855764048011135]}}, {"type": "Feature", "properties": {"norad_id": 66613, "name": "STARLINK-36037", "group": "last-30-days", "lat": 16.112095517303604, "lon": -169.10301998418944, "alt_km": 441.87155170868937, "timestamp": "2025-12-16T03:53:25.816096+00:00", "meta": {"OBJECT_NAME": "STARLINK-36037", "OBJECT_ID": "2025-270AB", "EPOCH": "2025-12-15T08:00:01.999872", "MEAN_MOTION": 15.40688506, "ECCENTRICITY": 0.0001701, "INCLINATION": 42.9997, "RA_OF_ASC_NODE": 177.6152, "ARG_OF_PERICENTER": 265.3697, "MEAN_ANOMALY": 196.559, "EPHEMERIS_TYPE": 0, "CLASSIFICATION_TYPE": "U", "NORAD_CAT_ID": 66613, "ELEMENT_SET_NO": 999, "REV_AT_EPOCH": 481, "BSTAR": 0.00053849317, "MEAN_MOTION_DOT": 0.00022248, "MEAN_MOTION_DDOT": 0}, "tle": {"line1": "1 66613U 25270AB  25349.33335648  .00022248  00000+0  53849-3 0  9995", "line2": "2 66613  42.9997 177.6152 0001701 265.3697 196.5590 15.40688506  4811"}}, "geometry": {"type": "Point", "coordinates": [-169.10301998418944, 16.112095517303604]}}, {"type": "Feature", "properties": {"norad_id": 66614, "name": "STARLINK-36040", "group": "last-30-days", "lat": 33.36611969966794, "lon": -52.37844980286566, "alt_km": 409.9243468848399, "timestamp": "2025-12-16T03:53:25.816106+00:00", "meta": {"OBJECT_NAME": "STARLINK-36040", "OBJECT_ID": "2025-270AC", "EPOCH": "2025-12-15T05:42:25.748064", "MEAN_MOTION": 15.5060955, "ECCENTRICITY": 0.00013061, "INCLINATION": 42.9988, "RA_OF_ASC_NODE": 177.9992, "ARG_OF_PERICENTER": 270.9985, "MEAN_ANOMALY": 89.0725, "EPHEMERIS_TYPE": 0, "CLASSIFICATION_TYPE": "U", "NORAD_CAT_ID": 66614, "ELEMENT_SET_NO": 999, "REV_AT_EPOCH": 457, "BSTAR": 0.0014639846, "MEAN_MOTION_DOT": 0.00086593, "MEAN_MOTION_DDOT": 0}, "tle": {"line1": "1 66614U 25270AC  25349.23779801  .00086593  00000+0  14640-2 0  9996", "line2": "2 66614  42.9988 177.9992 0001306 270.9985  89.0725 15.50609550  4572"}}, "geometry": {"type": "Point", "coordinates": [-52.37844980286566, 33.36611969966794]}}, {"type": "Feature", "properties": {"norad_id": 66615, "name": "STARLINK-35988", "group": "last-30-days", "lat": 36.532073195626246, "lon": -134.5942521009746, "alt_km": 441.32400788666746, "timestamp": "2025-12-16T03:53:25.816117+00:00", "meta": {"OBJECT_NAME": "STARLINK-35988", "OBJECT_ID": "2025-270AD", "EPOCH": "2025-12-15T08:00:01.999872", "MEAN_MOTION": 15.41033185, "ECCENTRICITY": 0.00019364, "INCLINATION": 42.9996, "RA_OF_ASC_NODE": 177.525, "ARG_OF_PERICENTER": 258.66, "MEAN_ANOMALY": 240.4603, "EPHEMERIS_TYPE": 0, "CLASSIFICATION_TYPE": "U", "NORAD_CAT_ID": 66615, "ELEMENT_SET_NO": 999, "REV_AT_EPOCH": 465, "BSTAR": -0.013389733, "MEAN_MOTION_DOT": -0.00528435, "MEAN_MOTION_DDOT": 0}, "tle": {"line1": "1 66615U 25270AD  25349.33335648 -.00528435  00000+0 -13390-1 0  9993", "line2": "2 66615  42.9996 177.5250 0001936 258.6600 240.4603 15.41033185  4653"}}, "geometry": {"type": "Point", "coordinates": [-134.5942521009746, 36.532073195626246]}}, {"type": "Feature", "properties": {"norad_id": 66616, "name": "STARLINK-35391", "group": "last-30-days", "lat": 32.429678935385496, "lon": -50.401484081091674, "alt_km": 410.05421742013095, "timestamp": "2025-12-16T03:53:25.816127+00:00", "meta": {"OBJECT_NAME": "STARLINK-35391", "OBJECT_ID": "2025-270AE", "EPOCH": "2025-12-15T05:41:56.073120", "MEAN_MOTION": 15.5060651, "ECCENTRICITY": 0.00014, "INCLINATION": 42.9988, "RA_OF_ASC_NODE": 177.997, "ARG_OF_PERICENTER": 263.4614, "MEAN_ANOMALY": 96.6087, "EPHEMERIS_TYPE": 0, "CLASSIFICATION_TYPE": "U", "NORAD_CAT_ID": 66616, "ELEMENT_SET_NO": 999, "REV_AT_EPOCH": 484, "BSTAR": 0.0014673875, "MEAN_MOTION_DOT": 0.00086788, "MEAN_MOTION_DDOT": 0}, "tle": {"line1": "1 66616U 25270AE  25349.23745455  .00086788  00000+0  14674-2 0  9999", "line2": "2 66616  42.9988 177.9970 0001400 263.4614  96.6087 15.50606510  4849"}}, "geometry": {"type": "Point", "coordinates": [-50.401484081091674, 32.429678935385496]}}, {"type": "Feature", "properties": {"norad_id": 66617, "name": "STARLINK-35940", "group": "last-30-days", "lat": 45.942622782489394, "lon": -138.25530866101363, "alt_km": 442.3246920000038, "timestamp": "2025-12-16T03:53:25.816138+00:00", "meta": {"OBJECT_NAME": "STARLINK-35940", "OBJECT_ID": "2025-271A", "EPOCH": "2025-12-15T08:00:01.999872", "MEAN_MOTION": 15.42871492, "ECCENTRICITY": 0.00021458, "INCLINATION": 53.1594, "RA_OF_ASC_NODE": 174.8689, "ARG_OF_PERICENTER": 101.9576, "MEAN_ANOMALY": 42.4533, "EPHEMERIS_TYPE": 0, "CLASSIFICATION_TYPE": "U", "NORAD_CAT_ID": 66617, "ELEMENT_SET_NO": 999, "REV_AT_EPOCH": 466, "BSTAR": -0.058651791, "MEAN_MOTION_DOT": -0.02333273, "MEAN_MOTION_DDOT": 0}, "tle": {"line1": "1 66617U 25271A   25349.33335648 -.02333273  00000+0 -58652-1 0  9992", "line2": "2 66617  53.1594 174.8689 0002145 101.9576  42.4533 15.42871492  4669"}}, "geometry": {"type": "Point", "coordinates": [-138.25530866101363, 45.942622782489394]}}, {"type": "Feature", "properties": {"norad_id": 66618, "name": "STARLINK-35970", "group": "last-30-days", "lat": 15.025615075694153, "lon": -20.855310431835584, "alt_km": 417.1515839814401, "timestamp": "2025-12-16T03:53:25.816149+00:00", "meta": {"OBJECT_NAME": "STARLINK-35970", "OBJECT_ID": "2025-271B", "EPOCH": "2025-12-15T08:00:01.999872", "MEAN_MOTION": 15.49270463, "ECCENTRICITY": 6.991e-05, "INCLINATION": 53.159, "RA_OF_ASC_NODE": 174.7189, "ARG_OF_PERICENTER": 84.5442, "MEAN_ANOMALY": 131.4165, "EPHEMERIS_TYPE": 0, "CLASSIFICATION_TYPE": "U", "NORAD_CAT_ID": 66618, "ELEMENT_SET_NO": 999, "REV_AT_EPOCH": 466, "BSTAR": 0.0012089611, "MEAN_MOTION_DOT": 0.00067279, "MEAN_MOTION_DDOT": 0}, "tle": {"line1": "1 66618U 25271B   25349.33335648  .00067279  00000+0  12090-2 0  9996", "line2": "2 66618  53.1590 174.7189 0000699  84.5442 131.4165 15.49270463  4668"}}, "geometry": {"type": "Point", "coordinates": [-20.855310431835584, 15.025615075694153]}}]}